{"type": "FeatureCollection", "features": [ {"type": "Feature", "properties": {"norad_id": 28659, "name": "DIRECTV 8", "group": "intelsat", "lat": 0.03852150854524024, "lon": 122.32702810670315, "alt_km": 35798.18166316636, "timestamp": "2025-12-25T09:48:51.953662+00:00", "meta": {"OBJECT_NAME": "DIRECTV 8", "OBJECT_ID": "2005-019A", "EPOCH": "2025-12-24T17:39:59.828832", "MEAN_MOTION": 1.00271677, "ECCENTRICITY": 0.00030261, "INCLINATION": 0.0184, "RA_OF_ASC_NODE": 29.67, "ARG_OF_PERICENTER": 253.5976, "MEAN_ANOMALY": 316.1971, "EPHEMERIS_TYPE": 0, "CLASSIFICATION_TYPE": "U", "NORAD_CAT_ID": 28659, "ELEMENT_SET_NO": 999, "REV_AT_EPOCH": 7532, "BSTAR": 0, "MEAN_MOTION_DOT": 2.2e-07, "MEAN_MOTION_DDOT": 0}, "tle": {"line1": "1 28659U 05019A   25358.73610913  .00000022  00000+0  00000+0 0  9990", "line2": "2 28659   0.0184  29.6700 0003026 253.5976 316.1971  1.00271677 75323"}}, "geometry": {"type": "Point", "coordinates": [122.32702810670315, 0.03852150854524024]}}, {"type": "Feature", "properties": {"norad_id": 28702, "name": "GALAXY 28 (G-28)", "group": "intelsat", "lat": 2.8018555177891726, "lon": 159.04429070527829, "alt_km": 35691.76246711525, "timestamp": "2025-12-25T09:48:51.953673+00:00", "meta": {"OBJECT_NAME": "GALAXY 28 (G-28)", "OBJECT_ID": "2005-022A", "EPOCH": "2025-12-24T19:33:11.490048", "MEAN_MOTION": 1.00600107, "ECCENTRICITY": 0.00035454, "INCLINATION": 2.8507, "RA_OF_ASC_NODE": 81.1411, "ARG_OF_PERICENTER": 159.1826, "MEAN_ANOMALY": 63.5727, "EPHEMERIS_TYPE": 0, "CLASSIFICATION_TYPE": "U", "NORAD_CAT_ID": 28702, "ELEMENT_SET_NO": 999, "REV_AT_EPOCH": 5022, "BSTAR": 0, "MEAN_MOTION_DOT": -2.27e-06, "MEAN_MOTION_DDOT": 0}, "tle": {"line1": "1 28702U 05022A   25358.81471632 -.00000227  00000+0  00000+0 0  9993", "line2": "2 28702   2.8507  81.1411 0003545 159.1826  63.5727  1.00600107 50222"}}, "geometry": {"type": "Point", "coordinates": [159.04429070527829, 2.8018555177891726]}}, {"type": "Feature", "properties": {"norad_id": 29236, "name": "GALAXY 16 (G-16)", "group": "intelsat", "lat": 0.00815809743623636, "lon": 142.3495942757722, "alt_km": 35794.045735048196, "timestamp": "2025-12-25T09:48:51.953685+00:00", "meta": {"OBJECT_NAME": "GALAXY 16 (G-16)", "OBJECT_ID": "2006-023A", "EPOCH": "2025-12-24T19:28:26.943744", "MEAN_MOTION": 1.00271756, "ECCENTRICITY": 0.00026673, "INCLINATION": 0.036, "RA_OF_ASC_NODE": 198.3571, "ARG_OF_PERICENTER": 78.6804, "MEAN_ANOMALY": 9.6474, "EPHEMERIS_TYPE": 0, "CLASSIFICATION_TYPE": "U", "NORAD_CAT_ID": 29236, "ELEMENT_SET_NO": 999, "REV_AT_EPOCH": 7122, "BSTAR": 0, "MEAN_MOTION_DOT": -1.06e-06, "MEAN_MOTION_DDOT": 0}, "tle": {"line1": "1 29236U 06023A   25358.81142296 -.00000106  00000+0  00000+0 0  9995", "line2": "2 29236   0.0360 198.3571 0002667  78.6804   9.6474  1.00271756 71222"}}, "geometry": {"type": "Point", "coordinates": [142.3495942757722, 0.00815809743623636]}}, {"type": "Feature", "properties": {"norad_id": 29494, "name": "DIRECTV 9S", "group": "intelsat", "lat": 1.67125629288711, "lon": 140.13940464190463, "alt_km": 35795.296819496114, "timestamp": "2025-12-25T09:48:51.953697+00:00", "meta": {"OBJECT_NAME": "DIRECTV 9S", "OBJECT_ID": "2006-043A", "EPOCH": "2025-12-24T14:19:48.997632", "MEAN_MOTION": 1.00271842, "ECCENTRICITY": 0.00029804, "INCLINATION": 1.9689, "RA_OF_ASC_NODE": 83.0865, "ARG_OF_PERICENTER": 195.4722, "MEAN_ANOMALY": 288.5613, "EPHEMERIS_TYPE": 0, "CLASSIFICATION_TYPE": "U", "NORAD_CAT_ID": 29494, "ELEMENT_SET_NO": 999, "REV_AT_EPOCH": 4963, "BSTAR": 0, "MEAN_MOTION_DOT": -9.3e-07, "MEAN_MOTION_DDOT": 0}, "tle": {"line1": "1 29494U 06043A   25358.59709488 -.00000093  00000+0  00000+0 0  9995", "line2": "2 29494   1.9689  83.0865 0002980 195.4722 288.5613  1.00271842 49632"}}, "geometry": {"type": "Point", "coordinates": [140.13940464190463, 1.67125629288711]}}, {"type": "Feature", "properties": {"norad_id": 31307, "name": "GALAXY 17 (G-17)", "group": "intelsat", "lat": 2.4476946322509727, "lon": 156.32785491291466, "alt_km": 35788.54897214202, "timestamp": "2025-12-25T09:48:51.953712+00:00", "meta": {"OBJECT_NAME": "GALAXY 17 (G-17)", "OBJECT_ID": "2007-016B", "EPOCH": "2025-12-24T19:32:34.050336", "MEAN_MOTION": 1.00276094, "ECCENTRICITY": 0.00053776, "INCLINATION": 2.5284, "RA_OF_ASC_NODE": 82.1476, "ARG_OF_PERICENTER": 174.0589, "MEAN_ANOMALY": 45.5313, "EPHEMERIS_TYPE": 0, "CLASSIFICATION_TYPE": "U", "NORAD_CAT_ID": 31307, "ELEMENT_SET_NO": 999, "REV_AT_EPOCH": 6805, "BSTAR": 0, "MEAN_MOTION_DOT": -1.87e-06, "MEAN_MOTION_DDOT": 0}, "tle": {"line1": "1 31307U 07016B   25358.81428299 -.00000187  00000+0  00000+0 0  9999", "line2": "2 31307   2.5284  82.1476 0005377 174.0589  45.5313  1.00276094 68050"}}, "geometry": {"type": "Point", "coordinates": [156.32785491291466, 2.4476946322509727]}}, {"type": "Feature", "properties": {"norad_id": 31862, "name": "DIRECTV 10", "group": "intelsat", "lat": 9.495165243597454e-05, "lon": 138.59179835305756, "alt_km": 35785.73099336577, "timestamp": "2025-12-25T09:48:51.953724+00:00", "meta": {"OBJECT_NAME": "DIRECTV 10", "OBJECT_ID": "2007-032A", "EPOCH": "2025-12-24T14:19:19.046208", "MEAN_MOTION": 1.00273609, "ECCENTRICITY": 2.725e-05, "INCLINATION": 0.0207, "RA_OF_ASC_NODE": 182.1136, "ARG_OF_PERICENTER": 53.7746, "MEAN_ANOMALY": 329.5202, "EPHEMERIS_TYPE": 0, "CLASSIFICATION_TYPE": "U", "NORAD_CAT_ID": 31862, "ELEMENT_SET_NO": 999, "REV_AT_EPOCH": 4384, "BSTAR": 0, "MEAN_MOTION_DOT": -8.2e-07, "MEAN_MOTION_DDOT": 0}, "tle": {"line1": "1 31862U 07032A   25358.59674822 -.00000082  00000+0  00000+0 0  9997", "line2": "2 31862   0.0207 182.1136 0000272  53.7746 329.5202  1.00273609 43846"}}, "geometry": {"type": "Point", "coordinates": [138.59179835305756, 9.495165243597454e-05]}}, {"type": "Feature", "properties": {"norad_id": 32253, "name": "INTELSAT 11 (IS-11)", "group": "intelsat", "lat": -1.5162131827323113, "lon": 51.46418555557205, "alt_km": 36165.74217724305, "timestamp": "2025-12-25T09:48:51.953735+00:00", "meta": {"OBJECT_NAME": "INTELSAT 11 (IS-11)", "OBJECT_ID": "2007-044B", "EPOCH": "2025-12-24T20:46:04.510272", "MEAN_MOTION": 0.99053047, "ECCENTRICITY": 0.00086021, "INCLINATION": 3.1098, "RA_OF_ASC_NODE": 80.8414, "ARG_OF_PERICENTER": 171.0045, "MEAN_ANOMALY": 325.7039, "EPHEMERIS_TYPE": 0, "CLASSIFICATION_TYPE": "U", "NORAD_CAT_ID": 32253, "ELEMENT_SET_NO": 999, "REV_AT_EPOCH": 6672, "BSTAR": 0, "MEAN_MOTION_DOT": -1.82e-06, "MEAN_MOTION_DDOT": 0}, "tle": {"line1": "1 32253U 07044B   25358.86532998 -.00000182  00000+0  00000+0 0  9993", "line2": "2 32253   3.1098  80.8414 0008602 171.0045 325.7039  0.99053047 66724"}}, "geometry": {"type": "Point", "coordinates": [51.46418555557205, -1.5162131827323113]}}, {"type": "Feature", "properties": {"norad_id": 32388, "name": "HORIZONS-2", "group": "intelsat", "lat": 2.153350873968632, "lon": 167.52592349432277, "alt_km": 35793.8947276746, "timestamp": "2025-12-25T09:48:51.953747+00:00", "meta": {"OBJECT_NAME": "HORIZONS-2", "OBJECT_ID": "2007-063B", "EPOCH": "2025-12-24T19:35:48.738912", "MEAN_MOTION": 1.00269737, "ECCENTRICITY": 0.0004754, "INCLINATION": 2.1511, "RA_OF_ASC_NODE": 82.8306, "ARG_OF_PERICENTER": 196.4955, "MEAN_ANOMALY": 34.4159, "EPHEMERIS_TYPE": 0, "CLASSIFICATION_TYPE": "U", "NORAD_CAT_ID": 32388, "ELEMENT_SET_NO": 999, "REV_AT_EPOCH": 6606, "BSTAR": 0, "MEAN_MOTION_DOT": -2.33e-06, "MEAN_MOTION_DDOT": 0}, "tle": {"line1": "1 32388U 07063B   25358.81653633 -.00000233  00000+0  00000+0 0  9995", "line2": "2 32388   2.1511  82.8306 0004754 196.4955  34.4159  1.00269737 66061"}}, "geometry": {"type": "Point", "coordinates": [167.52592349432277, 2.153350873968632]}}, {"type": "Feature", "properties": {"norad_id": 32729, "name": "DIRECTV 11", "group": "intelsat", "lat": -0.013765791370348751, "lon": 142.12623265879503, "alt_km": 35785.9251338545, "timestamp": "2025-12-25T09:48:51.953759+00:00", "meta": {"OBJECT_NAME": "DIRECTV 11", "OBJECT_ID": "2008-013A", "EPOCH": "2025-12-24T09:12:12.534624", "MEAN_MOTION": 1.00256345, "ECCENTRICITY": 0.00011263, "INCLINATION": 0.0044, "RA_OF_ASC_NODE": 219.4994, "ARG_OF_PERICENTER": 300.4767, "MEAN_ANOMALY": 332.0426, "EPHEMERIS_TYPE": 0, "CLASSIFICATION_TYPE": "U", "NORAD_CAT_ID": 32729, "ELEMENT_SET_NO": 999, "REV_AT_EPOCH": 4384, "BSTAR": 0, "MEAN_MOTION_DOT": 0, "MEAN_MOTION_DDOT": 0}, "tle": {"line1": "1 32729U 08013A   25358.38347841  .00000000  00000+0  00000+0 0  9994", "line2": "2 32729   0.0044 219.4994 0001126 300.4767 332.0426  1.00256345 43843"}}, "geometry": {"type": "Point", "coordinates": [142.12623265879503, -0.013765791370348751]}}, {"type": "Feature", "properties": {"norad_id": 32951, "name": "GALAXY 18 (G-18)", "group": "intelsat", "lat": 0.021199199564325782, "lon": 118.36180468242777, "alt_km": 35798.13580799279, "timestamp": "2025-12-25T09:48:51.953771+00:00", "meta": {"OBJECT_NAME": "GALAXY 18 (G-18)", "OBJECT_ID": "2008-024A", "EPOCH": "2025-12-25T02:12:40.725792", "MEAN_MOTION": 1.00272072, "ECCENTRICITY": 0.0003031, "INCLINATION": 0.017, "RA_OF_ASC_NODE": 323.4442, "ARG_OF_PERICENTER": 316.2082, "MEAN_ANOMALY": 84.3679, "EPHEMERIS_TYPE": 0, "CLASSIFICATION_TYPE": "U", "NORAD_CAT_ID": 32951, "ELEMENT_SET_NO": 999, "REV_AT_EPOCH": 4410, "BSTAR": 0, "MEAN_MOTION_DOT": 4.6e-07, "MEAN_MOTION_DDOT": 0}, "tle": {"line1": "1 32951U 08024A   25359.09213803  .00000046  00000+0  00000+0 0  9992", "line2": "2 32951   0.0170 323.4442 0003031 316.2082  84.3679  1.00272072 44108"}}, "geometry": {"type": "Point", "coordinates": [118.36180468242777, 0.021199199564325782]}}]}